STARLINK-2022           
1 47643U 21012Z   23245.64871323 -.00001155  00000+0 -58642-4 0  9992
2 47643  53.0531 217.3547 0001377  98.8860 261.2285 15.06391749141747
